{
    "week": 289,
    "satellites": [
        {
            "Name": "GSAT0101 (GALILEO-PFM)",
            "Line1": "1 37846U 11060A   24292.90609298 -.00000095  00000+0  00000+0 0  9991",
            "Line2": "2 37846  57.1232 358.1902 0000717 301.9934  58.0594  1.70475671 80919",
            "SatelliteNumber": "37846",
            "Classification": "U",
            "LaunchYear": "11",
            "LaunchNumber": "060",
            "PieceOfLaunch": "A",
            "EpochYear": "24",
            "EpochDay": 292.90609298,
            "FirstDerivativeMeanMotion": -9.5e-07,
            "SecondDerivativeMeanMotion": "00000+0",
            "BSTAR": "00000+0",
            "SetNumber": "999",
            "Inclination": 57.1232,
            "RAAN": 358.1902,
            "Eccentricity": 7.17e-05,
            "ArgumentOfPerigee": 301.9934,
            "MeanAnomaly": 58.0594,
            "MeanMotion": 1.70475671,
            "RevolutionNumber": "8091"
        },
        {
            "Name": "GSAT0102 (GALILEO-FM2)",
            "Line1": "1 37847U 11060B   24294.59995506 -.00000100  00000+0  00000+0 0  9996",
            "Line2": "2 37847  57.1236 358.1444 0002938 296.2482  68.8171  1.70475247 80825",
            "SatelliteNumber": "37847",
            "Classification": "U",
            "LaunchYear": "11",
            "LaunchNumber": "060",
            "PieceOfLaunch": "B",
            "EpochYear": "24",
            "EpochDay": 294.59995506,
            "FirstDerivativeMeanMotion": -1e-06,
            "SecondDerivativeMeanMotion": "00000+0",
            "BSTAR": "00000+0",
            "SetNumber": "999",
            "Inclination": 57.1236,
            "RAAN": 358.1444,
            "Eccentricity": 0.0002938,
            "ArgumentOfPerigee": 296.2482,
            "MeanAnomaly": 68.8171,
            "MeanMotion": 1.70475247,
            "RevolutionNumber": "8082"
        },
        {
            "Name": "GSAT0103 (GALILEO-FM3)",
            "Line1": "1 38857U 12055A   24290.01263715  .00000075  00000+0  00000+0 0  9996",
            "Line2": "2 38857  55.4614 118.2831 0001890 257.2923 102.7627  1.70473513 74625",
            "SatelliteNumber": "38857",
            "Classification": "U",
            "LaunchYear": "12",
            "LaunchNumber": "055",
            "PieceOfLaunch": "A",
            "EpochYear": "24",
            "EpochDay": 290.01263715,
            "FirstDerivativeMeanMotion": 7.5e-07,
            "SecondDerivativeMeanMotion": "00000+0",
            "BSTAR": "00000+0",
            "SetNumber": "999",
            "Inclination": 55.4614,
            "RAAN": 118.2831,
            "Eccentricity": 0.000189,
            "ArgumentOfPerigee": 257.2923,
            "MeanAnomaly": 102.7627,
            "MeanMotion": 1.70473513,
            "RevolutionNumber": "7462"
        },
        {
            "Name": "GSAT0201 (GALILEO 5)",
            "Line1": "1 40128U 14050A   24291.43839547 -.00000050  00000+0  00000+0 0  9990",
            "Line2": "2 40128  49.5339 298.1418 1614214 156.0281 212.4219  1.85519402 67048",
            "SatelliteNumber": "40128",
            "Classification": "U",
            "LaunchYear": "14",
            "LaunchNumber": "050",
            "PieceOfLaunch": "A",
            "EpochYear": "24",
            "EpochDay": 291.43839547,
            "FirstDerivativeMeanMotion": -5e-07,
            "SecondDerivativeMeanMotion": "00000+0",
            "BSTAR": "00000+0",
            "SetNumber": "999",
            "Inclination": 49.5339,
            "RAAN": 298.1418,
            "Eccentricity": 0.1614214,
            "ArgumentOfPerigee": 156.0281,
            "MeanAnomaly": 212.4219,
            "MeanMotion": 1.85519402,
            "RevolutionNumber": "6704"
        },
        {
            "Name": "GSAT0202 (GALILEO 6)",
            "Line1": "1 40129U 14050B   24294.39117971 -.00000053  00000+0  00000+0 0  9992",
            "Line2": "2 40129  49.5473 297.1011 1613539 156.9356 211.2171  1.85520162 69239",
            "SatelliteNumber": "40129",
            "Classification": "U",
            "LaunchYear": "14",
            "LaunchNumber": "050",
            "PieceOfLaunch": "B",
            "EpochYear": "24",
            "EpochDay": 294.39117971,
            "FirstDerivativeMeanMotion": -5.3e-07,
            "SecondDerivativeMeanMotion": "00000+0",
            "BSTAR": "00000+0",
            "SetNumber": "999",
            "Inclination": 49.5473,
            "RAAN": 297.1011,
            "Eccentricity": 0.1613539,
            "ArgumentOfPerigee": 156.9356,
            "MeanAnomaly": 211.2171,
            "MeanMotion": 1.85520162,
            "RevolutionNumber": "6923"
        },
        {
            "Name": "GSAT0203 (GALILEO 7)",
            "Line1": "1 40544U 15017A   24293.27160388 -.00000096  00000+0  00000+0 0  9990",
            "Line2": "2 40544  56.9185 358.0974 0005263 249.4061 110.5968  1.70476023 58879",
            "SatelliteNumber": "40544",
            "Classification": "U",
            "LaunchYear": "15",
            "LaunchNumber": "017",
            "PieceOfLaunch": "A",
            "EpochYear": "24",
            "EpochDay": 293.27160388,
            "FirstDerivativeMeanMotion": -9.6e-07,
            "SecondDerivativeMeanMotion": "00000+0",
            "BSTAR": "00000+0",
            "SetNumber": "999",
            "Inclination": 56.9185,
            "RAAN": 358.0974,
            "Eccentricity": 0.0005263,
            "ArgumentOfPerigee": 249.4061,
            "MeanAnomaly": 110.5968,
            "MeanMotion": 1.70476023,
            "RevolutionNumber": "5887"
        },
        {
            "Name": "GSAT0204 (GALILEO 8)",
            "Line1": "1 40545U 15017B   24294.69930887 -.00000101  00000+0  00000+0 0  9994",
            "Line2": "2 40545  56.9240 358.0745 0004909 234.4576 125.5540  1.70475740 59563",
            "SatelliteNumber": "40545",
            "Classification": "U",
            "LaunchYear": "15",
            "LaunchNumber": "017",
            "PieceOfLaunch": "B",
            "EpochYear": "24",
            "EpochDay": 294.69930887,
            "FirstDerivativeMeanMotion": -1.01e-06,
            "SecondDerivativeMeanMotion": "00000+0",
            "BSTAR": "00000+0",
            "SetNumber": "999",
            "Inclination": 56.924,
            "RAAN": 358.0745,
            "Eccentricity": 0.0004909,
            "ArgumentOfPerigee": 234.4576,
            "MeanAnomaly": 125.554,
            "MeanMotion": 1.7047574,
            "RevolutionNumber": "5956"
        },
        {
            "Name": "GSAT0205 (GALILEO 9)",
            "Line1": "1 40889U 15045A   24293.29430036 -.00000007  00000+0  00000+0 0  9997",
            "Line2": "2 40889  55.1665 238.3416 0004271  19.6657 340.3246  1.70472879 56686",
            "SatelliteNumber": "40889",
            "Classification": "U",
            "LaunchYear": "15",
            "LaunchNumber": "045",
            "PieceOfLaunch": "A",
            "EpochYear": "24",
            "EpochDay": 293.29430036,
            "FirstDerivativeMeanMotion": -7e-08,
            "SecondDerivativeMeanMotion": "00000+0",
            "BSTAR": "00000+0",
            "SetNumber": "999",
            "Inclination": 55.1665,
            "RAAN": 238.3416,
            "Eccentricity": 0.0004271,
            "ArgumentOfPerigee": 19.6657,
            "MeanAnomaly": 340.3246,
            "MeanMotion": 1.70472879,
            "RevolutionNumber": "5668"
        },
        {
            "Name": "GSAT0206 (GALILEO 10)",
            "Line1": "1 40890U 15045B   24294.10153846 -.00000007  00000+0  00000+0 0  9991",
            "Line2": "2 40890  55.1647 238.3147 0002551   1.5908 358.3887  1.70472966 56729",
            "SatelliteNumber": "40890",
            "Classification": "U",
            "LaunchYear": "15",
            "LaunchNumber": "045",
            "PieceOfLaunch": "B",
            "EpochYear": "24",
            "EpochDay": 294.10153846,
            "FirstDerivativeMeanMotion": -7e-08,
            "SecondDerivativeMeanMotion": "00000+0",
            "BSTAR": "00000+0",
            "SetNumber": "999",
            "Inclination": 55.1647,
            "RAAN": 238.3147,
            "Eccentricity": 0.0002551,
            "ArgumentOfPerigee": 1.5908,
            "MeanAnomaly": 358.3887,
            "MeanMotion": 1.70472966,
            "RevolutionNumber": "5672"
        },
        {
            "Name": "GSAT0209 (GALILEO 12)",
            "Line1": "1 41174U 15079A   24293.09811408  .00000050  00000+0  00000+0 0  9993",
            "Line2": "2 41174  55.4817 117.9085 0002164 358.1778   1.8719  1.70474144 54447",
            "SatelliteNumber": "41174",
            "Classification": "U",
            "LaunchYear": "15",
            "LaunchNumber": "079",
            "PieceOfLaunch": "A",
            "EpochYear": "24",
            "EpochDay": 293.09811408,
            "FirstDerivativeMeanMotion": 5e-07,
            "SecondDerivativeMeanMotion": "00000+0",
            "BSTAR": "00000+0",
            "SetNumber": "999",
            "Inclination": 55.4817,
            "RAAN": 117.9085,
            "Eccentricity": 0.0002164,
            "ArgumentOfPerigee": 358.1778,
            "MeanAnomaly": 1.8719,
            "MeanMotion": 1.70474144,
            "RevolutionNumber": "5444"
        }
    ]
}